norad_id,name,regime,epoch,line1,line2,inclination,eccentricity,mean_motion,raan,arg_pericenter,mean_anomaly
19751,COSMOS 1989 (ETALON 1),NSO,23161.74219606,1 19751U 89001C   23161.74219606  .00000034  00000-0  00000-0 0    10,2 19751  64.4085 110.0556 0023998 214.7131 137.6999  2.13156134267869,64.4085,0.0023998,2.13156134,110.0556,214.7131,137.6999
19751,COSMOS 1989 (ETALON 1),NSO,23162.45724191,1 19751U 89001C   23162.45724191  .00000026  00000-0  00000-0 0    10,2 19751  64.4087 110.0310 0024000 214.7194 326.3923  2.13156142267888,64.4087,0.0024,2.13156142,110.031,214.7194,326.3923
19751,COSMOS 1989 (ETALON 1),NSO,23163.17336911,1 19751U 89001C   23163.17336911  .00000016  00000-0  00000+0 0  4741,2 19751  64.4089 110.0063 0023997 214.7272 155.9130  2.13156152267973,64.4089,0.0023997,2.13156152,110.0063,214.7272,155.913
19751,COSMOS 1989 (ETALON 1),NSO,23163.26300628,1 19751U 89001C   23163.26300628  .00000015  00000-0  00000-0 0    13,2 19751  64.4089 110.0032 0023997 214.7262 224.6982  2.13156153267901,64.4089,0.0023997,2.13156153,110.0032,214.7262,224.6982
19751,COSMOS 1989 (ETALON 1),NSO,23163.86265025,1 19751U 89001C   23163.86265025  .00000006  00000-0  00000-0 0    10,2 19751  64.4091 109.9826 0023998 214.7368 324.8313  2.13156163267913,64.4091,0.0023998,2.13156163,109.9826,214.7368,324.8313
19751,COSMOS 1989 (ETALON 1),NSO,23164.29346222,1 19751U 89001C   23164.29346222 -.00000001  00000-0  00000-0 0    13,2 19751  64.4092 109.9677 0023997 214.7440 295.4127  2.13156172267925,64.4092,0.0023997,2.13156172,109.9677,214.744,295.4127
19751,COSMOS 1989 (ETALON 1),NSO,23164.79870705,1 19751U 89001C   23164.79870705 -.00000008  00000-0  00000-0 0    13,2 19751  64.4093 109.9503 0023996 214.7502 323.1120  2.13156182267936,64.4093,0.0023996,2.13156182,109.9503,214.7502,323.112
19751,COSMOS 1989 (ETALON 1),NSO,23165.25834164,1 19751U 89001C   23165.25834164 -.00000015  00000-0  00000-0 0    12,2 19751  64.4094 109.9345 0023994 214.7531 315.8150  2.13156190267942,64.4094,0.0023994,2.1315619,109.9345,214.7531,315.815
19751,COSMOS 1989 (ETALON 1),NSO,23165.69444479,1 19751U 89001C   23165.69444479 -.00000020  00000-0  00000-0 0    12,2 19751  64.4095 109.9195 0023993 214.7574 290.4595  2.13156199267953,64.4095,0.0023993,2.13156199,109.9195,214.7574,290.4595
19751,COSMOS 1989 (ETALON 1),NSO,23166.59829890,1 19751U 89001C   23166.59829890 -.00000028  00000-0  00000-0 0    14,2 19751  64.4098 109.8884 0023989 214.7567 264.0432  2.13156218267978,64.4098,0.0023989,2.13156218,109.8884,214.7567,264.0432
19751,COSMOS 1989 (ETALON 1),NSO,23166.66525017,1 19751U 89001C   23166.66525017 -.00000029  00000-0  00000-0 0    17,2 19751  64.4098 109.8861 0023988 214.7580 315.4176  2.13156219267974,64.4098,0.0023988,2.13156219,109.8861,214.758,315.4176
19751,COSMOS 1989 (ETALON 1),NSO,23167.53274258,1 19751U 89001C   23167.53274258 -.00000032  00000-0  00000-0 0    16,2 19751  64.4100 109.8563 0023985 214.7509 261.1052  2.13156238267998,64.41,0.0023985,2.13156238,109.8563,214.7509,261.1052
19751,COSMOS 1989 (ETALON 1),NSO,23167.60551363,1 19751U 89001C   23167.60551363 -.00000032  00000-0  00000+0 0  4775,2 19751  64.4101 109.8538 0023984 214.7532 316.9446  2.13156239268062,64.4101,0.0023984,2.13156239,109.8538,214.7532,316.9446
19751,COSMOS 1989 (ETALON 1),NSO,23167.71788601,1 19751U 89001C   23167.71788601 -.00000032  00000-0  00000-0 0    18,2 19751  64.4101 109.8499 0023982 214.7506  43.1774  2.13156242267995,64.4101,0.0023982,2.13156242,109.8499,214.7506,43.1774
19751,COSMOS 1989 (ETALON 1),NSO,23168.54387639,1 19751U 89001C   23168.54387639 -.00000030  00000-0  00000-0 0    14,2 19751  64.4103 109.8215 0023980 214.7433 317.0181  2.13156258268016,64.4103,0.002398,2.13156258,109.8215,214.7433,317.0181
19751,COSMOS 1989 (ETALON 1),NSO,23168.78322529,1 19751U 89001C   23168.78322529 -.00000029  00000-0  00000-0 0    15,2 19751  64.4104 109.8132 0023980 214.7336 140.6949  2.13156262268014,64.4104,0.002398,2.13156262,109.8132,214.7336,140.6949
19751,COSMOS 1989 (ETALON 1),NSO,23169.48308668,1 19751U 89001C   23169.48308668 -.00000024  00000-0  00000-0 0    16,2 19751  64.4106 109.7892 0023979 214.7348 317.7405  2.13156276268030,64.4106,0.0023979,2.13156276,109.7892,214.7348,317.7405
19751,COSMOS 1989 (ETALON 1),NSO,23170.42487701,1 19751U 89001C   23170.42487701 -.00000015  00000-0  00000-0 0    18,2 19751  64.4108 109.7568 0023978 214.7341 320.4350  2.13156293268055,64.4108,0.0023978,2.13156293,109.7568,214.7341,320.435
19751,COSMOS 1989 (ETALON 1),NSO,23170.46792036,1 19751U 89001C   23170.46792036 -.00000014  00000-0  00000-0 0    11,2 19751  64.4108 109.7553 0023977 214.7334 353.4656  2.13156293268055,64.4108,0.0023977,2.13156293,109.7553,214.7334,353.4656
19751,COSMOS 1989 (ETALON 1),NSO,23171.35508635,1 19751U 89001C   23171.35508635 -.00000005  00000-0  00000-0 0    10,2 19751  64.4111 109.7248 0023979 214.7405 314.2357  2.13156306268071,64.4111,0.0023979,2.13156306,109.7248,214.7405,314.2357
19751,COSMOS 1989 (ETALON 1),NSO,23172.23839248,1 19751U 89001C   23172.23839248  .00000004  00000-0  00000-0 0    13,2 19751  64.4113 109.6944 0023980 214.7491 272.0424  2.13156313268098,64.4113,0.002398,2.13156313,109.6944,214.7491,272.0424
19751,COSMOS 1989 (ETALON 1),NSO,23172.72297684,1 19751U 89001C   23172.72297684  .00000009  00000-0  00000-0 0    14,2 19751  64.4114 109.6777 0023979 214.7537 283.8893  2.13156316268107,64.4114,0.0023979,2.13156316,109.6777,214.7537,283.8893
19751,COSMOS 1989 (ETALON 1),NSO,23173.31498574,1 19751U 89001C   23173.31498574  .00000013  00000-0  00000+0 0  4817,2 19751  64.4116 109.6574 0023979 214.7559  18.1721  2.13156316268185,64.4116,0.0023979,2.13156316,109.6574,214.7559,18.1721
19751,COSMOS 1989 (ETALON 1),NSO,23174.64073141,1 19751U 89001C   23174.64073141  .00000018  00000-0  00000+0 0  4829,2 19751  64.4120 109.6118 0023977 214.7550 315.4995  2.13156307268213,64.412,0.0023977,2.13156307,109.6118,214.755,315.4995
19751,COSMOS 1989 (ETALON 1),NSO,23176.42122576,1 19751U 89001C   23176.42122576  .00000017  00000-0  00000+0 0  4834,2 19751  64.4124 109.5505 0023981 214.7418 241.7959  2.13156282268251,64.4124,0.0023981,2.13156282,109.5505,214.7418,241.7959
19751,COSMOS 1989 (ETALON 1),NSO,23177.46327134,1 19751U 89001C   23177.46327134  .00000013  00000-0  00000+0 0  4843,2 19751  64.4127 109.5147 0023983 214.7268 321.4368  2.13156263268272,64.4127,0.0023983,2.13156263,109.5147,214.7268,321.4368
19751,COSMOS 1989 (ETALON 1),NSO,23179.12417134,1 19751U 89001C   23179.12417134  .00000005  00000-0  00000+0 0  4850,2 19751  64.4131 109.4575 0023991 214.7268 155.9478  2.13156233268314,64.4131,0.0023991,2.13156233,109.4575,214.7268,155.9478
19751,COSMOS 1989 (ETALON 1),NSO,23180.28200727,1 19751U 89001C   23180.28200727 -.00000001  00000-0  00000+0 0  4865,2 19751  64.4134 109.4176 0023993 214.7310 324.4226  2.13156213268338,64.4134,0.0023993,2.13156213,109.4176,214.731,324.4226
19751,COSMOS 1989 (ETALON 1),NSO,23181.62838434,1 19751U 89001C   23181.62838434 -.00000005  00000-0  00000+0 0  4871,2 19751  64.4138 109.3713 0023995 214.7429 277.5689  2.13156189268367,64.4138,0.0023995,2.13156189,109.3713,214.7429,277.5689
19751,COSMOS 1989 (ETALON 1),NSO,23183.48455194,1 19751U 89001C   23183.48455194 -.00000002  00000-0  00000+0 0  4883,2 19751  64.4144 109.3074 0023995 214.7527 261.9106  2.13156159268406,64.4144,0.0023995,2.13156159,109.3074,214.7527,261.9106
19751,COSMOS 1989 (ETALON 1),NSO,23184.51878822,1 19751U 89001C   23184.51878822  .00000002  00000-0  00000+0 0  4895,2 19751  64.4147 109.2718 0023995 214.7457 335.5508  2.13156145268426,64.4147,0.0023995,2.13156145,109.2718,214.7457,335.5508
19751,COSMOS 1989 (ETALON 1),NSO,23185.91598159,1 19751U 89001C   23185.91598159  .00000009  00000-0  00000+0 0  4901,2 19751  64.4150 109.2237 0023996 214.7397 327.7092  2.13156137268455,64.415,0.0023996,2.13156137,109.2237,214.7397,327.7092
19751,COSMOS 1989 (ETALON 1),NSO,23187.09927399,1 19751U 89001C   23187.09927399  .00000013  00000-0  00000+0 0  4910,2 19751  64.4154 109.1830 0023994 214.7347 155.7272  2.13156136268481,64.4154,0.0023994,2.13156136,109.183,214.7347,155.7272
19751,COSMOS 1989 (ETALON 1),NSO,23188.17225683,1 19751U 89001C   23188.17225683  .00000011  00000-0  00000+0 0  4926,2 19751  64.4156 109.1460 0023995 214.7322 259.0955  2.13156140268500,64.4156,0.0023995,2.1315614,109.146,214.7322,259.0955
19751,COSMOS 1989 (ETALON 1),NSO,23189.61491775,1 19751U 89001C   23189.61491775 -.00000001  00000-0  00000+0 0  4934,2 19751  64.4160 109.0963 0023995 214.7426 286.1277  2.13156152268531,64.416,0.0023995,2.13156152,109.0963,214.7426,286.1277
19751,COSMOS 1989 (ETALON 1),NSO,23191.53191660,1 19751U 89001C   23191.53191660 -.00000027  00000-0  00000+0 0  4947,2 19751  64.4165 109.0303 0023991 214.7658 317.1358  2.13156176268572,64.4165,0.0023991,2.13156176,109.0303,214.7658,317.1358
19751,COSMOS 1989 (ETALON 1),NSO,23192.72676987,1 19751U 89001C   23192.72676987 -.00000043  00000-0  00000+0 0  4958,2 19751  64.4168 108.9892 0023985 214.7714 154.0148  2.13156198268605,64.4168,0.0023985,2.13156198,108.9892,214.7714,154.0148
19751,COSMOS 1989 (ETALON 1),NSO,23194.36021708,1 19751U 89001C   23194.36021708 -.00000055  00000-0  00000+0 0  4969,2 19751  64.4173 108.9329 0023977 214.7639 327.4671  2.13156232268632,64.4173,0.0023977,2.13156232,108.9329,214.7639,327.4671
19751,COSMOS 1989 (ETALON 1),NSO,23196.18295326,1 19751U 89001C   23196.18295326 -.00000051  00000-0  00000+0 0  4977,2 19751  64.4178 108.8702 0023972 214.7445 286.1845  2.13156275268676,64.4178,0.0023972,2.13156275,108.8702,214.7445,286.1845
19751,COSMOS 1989 (ETALON 1),NSO,23197.65188394,1 19751U 89001C   23197.65188394 -.00000037  00000-0  00000+0 0  4981,2 19751  64.4182 108.8196 0023967 214.7335 333.3967  2.13156305268708,64.4182,0.0023967,2.13156305,108.8196,214.7335,333.3967
